*******************************************************************************
 Revised: January 23, 2020             Saturn                               699
 
 PHYSICAL DATA (updated 2020-Jan-03):
  Mass x10^26 (kg)      = 5.6834          Density (g/cm^3)       =  0.687+-.001
  Equat. radius (1 bar) = 60268+-4 km     Polar radius (km)      = 54364+-10
  Vol. Mean Radius (km) = 58232+-6        Flattening             =  0.09796
  Geometric Albedo      = 0.47            Rocky core mass (Mc/M) =  0.1027
  Sid. rot. period (III)= 10h 39m 22.4s   Sid. rot. rate (rad/s) =  0.000163785 
  Mean solar day, hrs   =~10.656         
  GM (km^3/s^2)         = 37931206.159    GM 1-sigma (km^3/s^2)  = +- 98
  Equ. grav, ge (m/s^2) = 10.44           Pol. grav, gp (m/s^2)  = 12.14+-0.01
  Vis. magnitude V(1,0) = -8.88          
  Vis. mag. (opposition)= +0.67           Obliquity to orbit     = 26.73 deg
  Sidereal orbit period = 29.447498 yr    Sidereal orbit period  = 10755.698 d
  Mean daily motion     = 0.0334979 deg/d Mean orbit velocity    =  9.68 km/s
  Atmos. temp. (1 bar)  = 134+-4 K        Escape speed, km/s    =  35.5          
  Aroche(ice)/Rp        =  2.71           Hill's sphere rad. Rp  = 1100
                                 Perihelion  Aphelion    Mean
  Solar Constant (W/m^2)         16.8        13.6        15.1
  Maximum Planetary IR (W/m^2)    4.7         4.5         4.6
  Minimum Planetary IR (W/m^2)    4.7         4.5         4.6
*******************************************************************************
 
 
*******************************************************************************
Ephemeris / WWW_USER Mon May  4 10:16:36 2020 Pasadena, USA      / Horizons    
*******************************************************************************
Target body name: Saturn (699)                    {source: sat427l_merged_DE438}
Center body name: Sun (10)                        {source: sat427l_merged_DE438}
Center-site name: BODY CENTER
*******************************************************************************
Start time      : A.D. 2019-Oct-15 00:00:00.0000 TDB
Stop  time      : A.D. 2149-Oct-15 00:00:00.0000 TDB
Step-size       : 138240 minutes
*******************************************************************************
Center geodetic : 0.00000000,0.00000000,0.0000000 {E-lon(deg),Lat(deg),Alt(km)}
Center cylindric: 0.00000000,0.00000000,0.0000000 {E-lon(deg),Dxy(km),Dz(km)}
Center radii    : 696000.0 x 696000.0 x 696000.0 k{Equator, meridian, pole}    
Output units    : AU-D                                                         
Output type     : GEOMETRIC cartesian states
Output format   : 2 (position and velocity)
Reference frame : ICRF/J2000.0                                                 
Coordinate systm: Ecliptic and Mean Equinox of Reference Epoch                 
*******************************************************************************
            JDTDB,            Calendar Date (TDB),                      X,                      Y,                      Z,                     VX,                     VY,                     VZ,
**************************************************************************************************************************************************************************************************
$$SOE
2496787.500000000, A.D. 2123-Nov-15 00:00:00.0000, -5.615224442320120E+00,  7.175947097741368E+00,  1.009513102576152E-01, -4.694759566841292E-03, -3.457385407594157E-03,  2.469727987189284E-04,
2496883.500000000, A.D. 2124-Feb-19 00:00:00.0000, -6.055446128593872E+00,  6.831299789440243E+00,  1.244677476718282E-01, -4.475391406227736E-03, -3.720041371443129E-03,  2.427827744514813E-04,
2496979.500000000, A.D. 2124-May-25 00:00:00.0000, -6.473877322962812E+00,  6.462158528426037E+00,  1.475361048414964E-01, -4.241057311695367E-03, -3.967611891857741E-03,  2.377463184320234E-04,
2497075.500000000, A.D. 2124-Aug-29 00:00:00.0000, -6.869164549894131E+00,  6.070022753499913E+00,  1.700770537304170E-01, -3.993439258890916E-03, -4.199273778815116E-03,  2.318943196855223E-04,
2497171.500000000, A.D. 2124-Dec-03 00:00:00.0000, -7.240078799562720E+00,  5.656428195230753E+00,  1.920144957402402E-01, -3.733384766730839E-03, -4.414657602789575E-03,  2.252510976089123E-04,
2497267.500000000, A.D. 2125-Mar-09 00:00:00.0000, -7.585475849965033E+00,  5.222987034879116E+00,  2.132750633371600E-01, -3.462118479547581E-03, -4.612826385397445E-03,  2.178872169913669E-04,
2497363.500000000, A.D. 2125-Jun-13 00:00:00.0000, -7.904347079842967E+00,  4.771369748087790E+00,  2.337903022209644E-01, -3.180848774483517E-03, -4.793448720344145E-03,  2.098181175830187E-04,
2497459.500000000, A.D. 2125-Sep-17 00:00:00.0000, -8.195791314338855E+00,  4.303292638075776E+00,  2.534942019134970E-01, -2.890876434593979E-03, -4.955817675801080E-03,  2.010670279991109E-04,
2497555.500000000, A.D. 2125-Dec-22 00:00:00.0000, -8.459051110887815E+00,  3.820506113117221E+00,  2.723263648541527E-01, -2.593657772499685E-03, -5.100045602611771E-03,  1.917063303316269E-04,
2497651.500000000, A.D. 2126-Mar-28 00:00:00.0000, -8.693460123235603E+00,  3.324762756352222E+00,  2.902295855485159E-01, -2.289923868349566E-03, -5.225724885032945E-03,  1.817818741299878E-04,
2497747.500000000, A.D. 2126-Jul-02 00:00:00.0000, -8.898472211569604E+00,  2.817872055738415E+00,  3.071515258454208E-01, -1.981335431638658E-03, -5.332529301090948E-03,  1.713406663504807E-04,
2497843.500000000, A.D. 2126-Oct-06 00:00:00.0000, -9.073680369703981E+00,  2.301627250776814E+00,  3.230444242334626E-01, -1.668921751633736E-03, -5.420676517613333E-03,  1.603853790226530E-04,
2497939.500000000, A.D. 2127-Jan-10 00:00:00.0000, -9.218772141874169E+00,  1.777826481565765E+00,  3.378642884108518E-01, -1.353978548652847E-03, -5.490011645074604E-03,  1.489967821497508E-04,
2498035.500000000, A.D. 2127-Apr-16 00:00:00.0000, -9.333557083711691E+00,  1.248255391810504E+00,  3.515730249549533E-01, -1.037495559340422E-03, -5.540923475409735E-03,  1.372386603339657E-04,
2498131.500000000, A.D. 2127-Jul-21 00:00:00.0000, -9.417932155497130E+00,  7.146957928414237E-01,  3.641355658930962E-01, -7.205490521786402E-04, -5.573165963337874E-03,  1.251401475444719E-04,
2498227.500000000, A.D. 2127-Oct-25 00:00:00.0000, -9.471932977244316E+00,  1.789175027467691E-01,  3.755227022842287E-01, -4.045611487793540E-04, -5.587334034977678E-03,  1.127387393230841E-04,
2498323.500000000, A.D. 2128-Jan-29 00:00:00.0000, -9.495677123435554E+00, -3.573710763925541E-01,  3.857086260582986E-01, -9.011785152756373E-05, -5.583701264405127E-03,  1.000791357905340E-04,
2498419.500000000, A.D. 2128-May-04 00:00:00.0000, -9.489367119690806E+00, -8.924613680640506E-01,  3.946724135930053E-01,  2.215035613864127E-04, -5.562449262593597E-03,  8.725017487610664E-05,
2498515.500000000, A.D. 2128-Aug-08 00:00:00.0000, -9.453315130669509E+00, -1.424693430194114E+00,  4.023976949054626E-01,  5.295620092841268E-04, -5.524164456605387E-03,  7.425751449219667E-05,
2498611.500000000, A.D. 2128-Nov-12 00:00:00.0000, -9.387911171895112E+00, -1.952440842281816E+00,  4.088713667514104E-01,  8.329878391264708E-04, -5.469081096283117E-03,  6.113446491033288E-05,
2498707.500000000, A.D. 2129-Feb-16 00:00:00.0000, -9.293642220272476E+00, -2.474138256350506E+00,  4.140856762327451E-01,  1.131078341303581E-03, -5.398064202103732E-03,  4.793325007514466E-05,
2498803.500000000, A.D. 2129-May-23 00:00:00.0000, -9.171038095376506E+00, -2.988262377972039E+00,  4.180353287005038E-01,  1.423198114538365E-03, -5.311171041989772E-03,  3.471576859289526E-05,
2498899.500000000, A.D. 2129-Aug-27 00:00:00.0000, -9.020733357184284E+00, -3.493316892271186E+00,  4.207202648136431E-01,  1.708211615020772E-03, -5.209205668127978E-03,  2.152189876688487E-05,
2498995.500000000, A.D. 2129-Dec-01 00:00:00.0000, -8.843425966946910E+00, -3.987893519733070E+00,  4.221431045416774E-01,  1.985812970370331E-03, -5.092759767858088E-03,  8.347729933929462E-06,
2499091.500000000, A.D. 2130-Mar-07 00:00:00.0000, -8.639864413064725E+00, -4.470619601499163E+00,  4.223102993666430E-01,  2.255128488507596E-03, -4.962288074883977E-03, -4.736453727093430E-06,
2499187.500000000, A.D. 2130-Jun-11 00:00:00.0000, -8.410861527564769E+00, -4.940187472950302E+00,  4.212319930222702E-01,  2.515801075004664E-03, -4.818482986404016E-03, -1.769691762259119E-05,
2499283.500000000, A.D. 2130-Sep-15 00:00:00.0000, -8.157279045954088E+00, -5.395326551223949E+00,  4.189206589597283E-01,  2.767026037246158E-03, -4.661675918279760E-03, -3.049929334066754E-05,
2499379.500000000, A.D. 2130-Dec-20 00:00:00.0000, -7.880057998989936E+00, -5.834842695249358E+00,  4.153932787079139E-01,  3.008339244477243E-03, -4.492944153108280E-03, -4.313167392172990E-05,
2499475.500000000, A.D. 2131-Mar-26 00:00:00.0000, -7.580148732027877E+00, -6.257609174482456E+00,  4.106683009011116E-01,  3.239524987995735E-03, -4.312507872263852E-03, -5.555003121990258E-05,
2499571.500000000, A.D. 2131-Jun-30 00:00:00.0000, -7.258564227992848E+00, -6.662527207430405E+00,  4.047683462456226E-01,  3.459750373578427E-03, -4.121119970045490E-03, -6.769205985603732E-05,
2499667.500000000, A.D. 2131-Oct-04 00:00:00.0000, -6.916363017591659E+00, -7.048581973192841E+00,  3.977178238645179E-01,  3.668898800879856E-03, -3.919437333491136E-03, -7.956791435256193E-05,
2499763.500000000, A.D. 2132-Jan-08 00:00:00.0000, -6.554638580708244E+00, -7.414807188411016E+00,  3.895440053830087E-01,  3.866333116306044E-03, -3.708045120379320E-03, -9.114871469540529E-05,
2499859.500000000, A.D. 2132-Apr-13 00:00:00.0000, -6.174517737053185E+00, -7.760316963542176E+00,  3.802770789101262E-01,  4.052032137345727E-03, -3.487709316598437E-03, -1.024113792025809E-04,
